UniqueId|Name|DOB|Address|Mobile|Country|Postal Code
ZYV75|Hamish Ingram|11/27/18|3659 Sed Road|1665120183399|South Georgia and The South Sandwich Islands|4954
HTT69|Herman Jenkins|05/05/19|Ap #556-4168 Nam St.|1632082480699|Barbados|33094-244
CXP22|Zachery Butler|04/24/19|Ap #159-960 Vulputate, St.|1642122082999|Argentina|13391
JBD49|Marsden Colon|11/26/19|960 Non, St.|1656102946499|Cyprus|228738
KPN66|Rogan Mann|12/18/19|9439 Tempus Street|1635042868999|Mexico|9537
COE28|Kadeem Sargent|12/09/18|958-5202 Tincidunt Street|1697030586399|Holy See (Vatican City State)|98-167
NTG70|Jakeem Becker|09/10/19|264-1597 Enim, Ave|1682060405699|French Southern Territories|988311
RMY19|Garth Wilkerson|05/30/19|2475 Vulputate Av.|1696021197999|Oman|40424
NNV23|Honorato Acosta|06/07/20|Ap #780-4906 Enim Ave|1642090196199|Uzbekistan|34831-609
UYW75|Jacob Rhodes|12/08/18|350-4704 Nunc St.|1652012400899|Mozambique|13631-906
QGH48|Rafael Mcneil|02/15/20|Ap #612-4324 Vestibulum St.|1637011564099|Anguilla|29318
UVZ87|Kaseem Nelson|03/11/19|P.O. Box 161, 2380 Pharetra St.|1680050787599|Mexico|5134
CGJ48|Jelani Howell|03/15/19|112-6186 Dignissim Ave|1646060945799|Myanmar|7821
UOY88|Hakeem Bryan|05/24/19|P.O. Box 791, 6991 Nec Street|1677030561599|British Indian Ocean Territory|58464
CAF99|Owen Calderon|02/22/19|Ap #395-2535 Id, St.|1692010566999|Costa Rica|621325
EPH61|Burke Morris|05/26/19|557-5521 Vitae, Ave|1655052506299|Singapore|36908-973
EHS70|Judah Mays|11/13/18|Ap #799-3536 Inceptos Avenue|1689121276099|Portugal|LA66 7SM
HXV31|Colin Franks|12/23/18|8361 Nam Av.|1624090547199|Tokelau|30417
HBE37|Dean Norris|12/15/19|P.O. Box 540, 7551 Metus. Rd.|1651091979699|United States Minor Outlying Islands|915347
LKG96|Burton Myers|10/20/19|Ap #979-8666 Gravida Avenue|1601051376499|Wallis and Futuna|241075
AQM98|Chaim Berger|06/08/19|P.O. Box 887, 7834 Ultrices St.|1699070751199|Nicaragua|C5V 3H5
HUG76|Honorato Gilbert|12/04/19|8499 Integer Rd.|1605011059699|Grenada|98041
DHW68|Holmes Owens|01/11/19|P.O. Box 778, 8258 Elit St.|1692121746099|Yemen|34-115
WTD70|Kermit Benton|10/26/19|849-9027 Natoque St.|1649122391899|Guam|1833 IB
HEC56|Nero Lopez|09/10/20|8099 Augue Rd.|1612030428599|Pakistan|38443
TIY89|Elton Hinton|06/10/19|Ap #869-6641 Amet Rd.|1688042916299|Korea, North|9125 EV
RWO75|Carter Cline|09/28/20|1487 Convallis, Avenue|1686040249799|Bermuda|57695
XNQ74|Preston Melendez|04/01/19|Ap #801-7573 Orci Road|1632021592199|Greece|U10 2OG
XZL65|Zephania Duffy|04/07/20|Ap #120-1323 Magna Street|1699011135399|Thailand|6158
EAW04|Macaulay Mccarty|03/26/20|438-1233 Cras Rd.|1632011121599|Burundi|3572
HAZ56|Declan Mcguire|11/20/18|Ap #740-4118 Sed Rd.|1694110873099|Svalbard and Jan Mayen Islands|9950
VEI14|Burke Morgan|02/08/20|8191 Aenean Avenue|1609063028299|Central African Republic|3782
SFI15|Merrill Hanson|09/02/19|P.O. Box 915, 292 Tortor. Rd.|1625090874699|Austria|3259
XAZ92|Grant Roy|07/24/20|4741 Enim. Av.|1664120335999|Sint Maarten|19218
VVY81|Connor Sharpe|10/21/19|478 Non, Av.|1648122060199|Mauritania|89629
SPX73|Vladimir Goff|12/18/19|P.O. Box 759, 5682 Lorem St.|1622101791799|Lesotho|4301
LQJ45|Hasad Hines|04/27/19|767-3537 Luctus, Street|1607051820899|Turkmenistan|33015
OYU92|Clinton Patrick|03/26/19|8822 Et St.|1613120421399|Norfolk Island|3466
VGF07|Jerome Becker|01/05/19|Ap #770-1566 Quisque St.|1668080243499|Svalbard and Jan Mayen Islands|05971
MFI92|Jack Olson|07/17/20|Ap #774-9033 Adipiscing Av.|1696100437599|Estonia|25773
QTK42|Cedric Mills|04/19/19|Ap #265-2671 Sem Rd.|1604123083599|Cyprus|1728
ROC33|Silas Mcdowell|10/26/19|137 Mollis Road|1609100382699|Lebanon|53839
SBP89|Hayden Curtis|09/08/19|P.O. Box 294, 5648 Suspendisse Rd.|1628060801699|Haiti|09664-397
LQJ75|Amal Bond|08/18/20|P.O. Box 541, 7956 Sit Rd.|1650011926099|Uganda|64339
AIF50|Ashton Kelly|04/30/19|Ap #245-6336 Tempor Rd.|1683042794899|Maldives|05-899
NZR69|Cairo Brock|01/12/20|P.O. Box 843, 1771 In Ave|1602080689399|Denmark|14917
XSL51|Hashim Wall|06/24/19|Ap #544-1208 Ut Road|1613042871599|American Samoa|8359 KZ
ARZ30|Hiram Horne|11/30/18|434-6875 Laoreet Rd.|1679021927899|Aruba|8520
TCG44|Mannix Franks|03/19/20|754-794 Nec St.|1628112221699|Sweden|97642
TGT76|Vance Gibson|09/16/20|P.O. Box 202, 447 Sagittis St.|1644091254399|Korea, South|1310
XBG20|Amir Melton|07/09/19|7476 Mauris Avenue|1696112494899|Cayman Islands|61535
FNH02|Dale Baldwin|03/15/19|Ap #719-3139 At St.|1697041642199|Comoros|13513
GVB68|Tyler Norman|05/08/19|265-5773 Aliquam Rd.|1640101450399|Kiribati|255607
YJM40|Odysseus Alvarez|08/06/20|Ap #187-8977 Imperdiet, Street|1676052661399|Japan|5585
NRX60|Nissim Hayden|04/20/19|Ap #567-9423 Sed Av.|1645020935499|Burundi|71646
TGA68|Jonah Roth|10/03/20|6622 Mauris Road|1673082045099|Fiji|41912
VEE25|Jackson Mccarty|08/10/19|862-4819 Donec Av.|1659072873699|Austria|035507
WSJ43|Dominic Vazquez|01/15/19|800 In Rd.|1622020185399|Tajikistan|J7J 2B5
SCN32|Dolan Allison|11/13/18|1546 Auctor Road|1618122512299|Rwanda|13078
JGR25|Macon Meyer|01/17/20|Ap #315-2040 Non, Avenue|1665092040199|Norway|190127
TWE68|Benjamin Fisher|08/04/20|P.O. Box 626, 6463 Scelerisque Avenue|1681032761699|Portugal|EE5B 3BF
HUP52|Ezra Castro|03/25/20|5902 Pede. Street|1627111663199|Sierra Leone|8406 PH
IRE31|Ezekiel Frost|11/26/19|666-196 Nisi Rd.|1649051945899|Svalbard and Jan Mayen Islands|31913
HDP35|Kennedy Hunter|02/25/19|P.O. Box 370, 7724 Urna Street|1615121332499|Cameroon|55941
IZP39|Colorado Rivers|08/24/20|858-898 Aliquam St.|1663111783899|Suriname|51744
EIY44|Tate Dodson|12/05/19|9101 Ac Avenue|1617030123299|Congo (Brazzaville)|31695
UOW80|Cameron Howe|06/27/20|Ap #524-4572 Tincidunt Rd.|1603022727299|Saint Pierre and Miquelon|01830
YFB03|Marshall Owen|08/02/19|872 Pellentesque St.|1610010403799|El Salvador|OK3S 2ZP
HSP42|Lars Phelps|03/28/20|Ap #240-7966 Erat. Street|1686092319599|Paraguay|HX3 8VQ
MFE06|Acton Massey|01/06/20|P.O. Box 700, 6684 Nulla. Rd.|1622082347899|Liechtenstein|50250
KTK47|Amir Chambers|04/24/19|P.O. Box 797, 1533 Massa. Street|1617071037199|Russian Federation|10034
KBY20|Hamish Whitehead|09/04/20|Ap #571-2832 Dis Road|1608111626799|Mayotte|55916
TYS86|Axel Mathews|05/02/19|P.O. Box 235, 4514 Sit Road|1667061205799|Saint Vincent and The Grenadines|7985 OO
DPG16|Lucius Middleton|02/03/20|P.O. Box 536, 8980 Sapien Road|1600121605399|Nicaragua|4823
YNP81|Hiram Holloway|09/01/19|P.O. Box 680, 972 Velit Street|1672120791099|Nigeria|14696-281
XNZ95|Giacomo Dennis|04/09/19|Ap #292-5108 Libero. Street|1678011263699|Nicaragua|V2H 4W6
ZVL50|Chester Stein|12/18/18|517-8597 Dictum Avenue|1615051319699|Comoros|H0S 6A1
TRP38|Fulton Dillard|03/09/20|P.O. Box 965, 3804 Quis, St.|1666041145399|Zambia|59702
KAR70|Ignatius Wynn|07/30/20|P.O. Box 560, 9475 Sed Road|1605122590799|Kuwait|3719
FSG36|Carson Donovan|07/03/20|P.O. Box 183, 8694 Aliquam Avenue|1666091831499|Nicaragua|2838
IJJ78|Jerry Tran|11/06/19|P.O. Box 834, 6907 Rutrum Rd.|1605033002199|Benin|49386
PUZ35|Galvin Patrick|12/22/19|Ap #771-2184 Dis Street|1686112041399|Yemen|65510
PXX22|Edward Fleming|04/08/20|P.O. Box 290, 7680 Turpis Street|1665050222999|Russian Federation|01109
XJN12|Erasmus Alvarez|04/13/19|P.O. Box 194, 3935 Luctus Rd.|1685012824999|Slovenia|07353
EMB43|Justin Potts|11/01/19|P.O. Box 213, 7591 Ligula. Street|1688120258599|Lithuania|66986-409
QZD13|Omar Hammond|04/13/20|Ap #376-6691 Luctus, Avenue|1631072406799|Cyprus|94-930
XXZ71|Samuel Fernandez|05/02/20|704-5103 Risus. Avenue|1644101643199|Iceland|5046
KQD90|Kareem Riddle|06/02/20|Ap #554-1966 Posuere Rd.|1624102740499|Burundi|63614
UCR88|Luke Burch|03/12/19|P.O. Box 470, 1891 Fringilla Rd.|1642011262999|Saint Martin|222741
MYW97|Ray Williamson|10/03/20|P.O. Box 970, 4668 Ante Road|1679120486799|Cayman Islands|10203
QGR83|Rogan Pace|01/23/19|778 Velit. Road|1614051613199|Eritrea|345993
ZFX03|Randall Rosa|12/18/18|175 Rutrum St.|1613091369299|Ireland|61633
EBT00|Kyle Whitehead|06/30/19|Ap #496-8589 Nunc Ave|1676070936699|Puerto Rico|649672
IWB17|Graham Gross|05/01/19|215-6468 Amet Rd.|1668080939399|Barbados|75094
BLY80|Warren Huber|12/05/19|P.O. Box 401, 8253 Eleifend Street|1656082607599|Svalbard and Jan Mayen Islands|A15 1SC
MUD87|Zane Stephens|07/13/20|185-6622 Dictum Rd.|1605080879499|Guatemala|53-058
MOV93|Brody Chang|09/04/20|375-287 Sociis Rd.|1621030442199|Macedonia|324390
OAJ62|Linus Richards|05/02/19|Ap #252-9317 Lobortis St.|1698101977799|Nigeria|94-583
HYR39|Todd White|12/08/19|P.O. Box 654, 5606 Pretium St.|1628072655799|Slovakia|93243
WLU27|Bradley Robbins|12/30/19|P.O. Box 416, 891 Cursus Rd.|1669041823299|Micronesia|C6X 0V0